[{"OBJECT_NAME":"STARLINK-34216","OBJECT_ID":"2025-124W","EPOCH":"2026-03-04T15:35:04.836192","MEAN_MOTION":15.27630645,"ECCENTRICITY":0.0001205,"INCLINATION":43.0004,"RA_OF_ASC_NODE":149.8186,"ARG_OF_PERICENTER":263.127,"MEAN_ANOMALY":96.9445,"EPHEMERIS_TYPE":0,"CLASSIFICATION_TYPE":"U","NORAD_CAT_ID":64337,"ELEMENT_SET_NO":999,"REV_AT_EPOCH":4101,"BSTAR":0.0010833,"MEAN_MOTION_DOT":0.00029713,"MEAN_MOTION_DDOT":0},{"OBJECT_NAME":"STARLINK-34218","OBJECT_ID":"2025-124X","EPOCH":"2026-03-04T06:31:12.180000","MEAN_MOTION":15.27647698,"ECCENTRICITY":0.00018989,"INCLINATION":42.9991,"RA_OF_ASC_NODE":148.6902,"ARG_OF_PERICENTER":262.6722,"MEAN_ANOMALY":97.3914,"EPHEMERIS_TYPE":0,"CLASSIFICATION_TYPE":"U","NORAD_CAT_ID":64338,"ELEMENT_SET_NO":999,"REV_AT_EPOCH":4099,"BSTAR":0.0016128278,"MEAN_MOTION_DOT":0.0004448,"MEAN_MOTION_DDOT":0},{"OBJECT_NAME":"STARLINK-34017","OBJECT_ID":"2025-124Y","EPOCH":"2026-03-04T14:37:55.980480","MEAN_MOTION":15.27626726,"ECCENTRICITY":0.0001417,"INCLINATION":43.0012,"RA_OF_ASC_NODE":150.3841,"ARG_OF_PERICENTER":270.7562,"MEAN_ANOMALY":89.3127,"EPHEMERIS_TYPE":0,"CLASSIFICATION_TYPE":"U","NORAD_CAT_ID":64339,"ELEMENT_SET_NO":999,"REV_AT_EPOCH":4100,"BSTAR":0.0013252,"MEAN_MOTION_DOT":0.00036437,"MEAN_MOTION_DDOT":0},{"OBJECT_NAME":"STARLINK-33977","OBJECT_ID":"2025-126A","EPOCH":"2026-03-04T08:00:01.000224","MEAN_MOTION":14.98343259,"ECCENTRICITY":0.00034135,"INCLINATION":70.0016,"RA_OF_ASC_NODE":47.8981,"ARG_OF_PERICENTER":268.5195,"MEAN_ANOMALY":4.7759,"EPHEMERIS_TYPE":0,"CLASSIFICATION_TYPE":"U","NORAD_CAT_ID":64344,"ELEMENT_SET_NO":999,"REV_AT_EPOCH":571,"BSTAR":0.0042298951,"MEAN_MOTION_DOT":0.00050763,"MEAN_MOTION_DDOT":0},{"OBJECT_NAME":"STARLINK-34426","OBJECT_ID":"2025-126B","EPOCH":"2026-03-04T08:16:57.268128","MEAN_MOTION":14.98341635,"ECCENTRICITY":0.00026736,"INCLINATION":70.0019,"RA_OF_ASC_NODE":47.8368,"ARG_OF_PERICENTER":270.4627,"MEAN_ANOMALY":89.6226,"EPHEMERIS_TYPE":0,"CLASSIFICATION_TYPE":"U","NORAD_CAT_ID":64345,"ELEMENT_SET_NO":999,"REV_AT_EPOCH":3988,"BSTAR":0.00099329559,"MEAN_MOTION_DOT":0.00011782,"MEAN_MOTION_DDOT":0},{"OBJECT_NAME":"STARLINK-34437","OBJECT_ID":"2025-126C","EPOCH":"2026-03-04T08:59:01.509792","MEAN_MOTION":14.98341192,"ECCENTRICITY":0.00030909,"INCLINATION":70.0019,"RA_OF_ASC_NODE":47.9434,"ARG_OF_PERICENTER":269.4122,"MEAN_ANOMALY":90.6683,"EPHEMERIS_TYPE":0,"CLASSIFICATION_TYPE":"U","NORAD_CAT_ID":64346,"ELEMENT_SET_NO":999,"REV_AT_EPOCH":3988,"BSTAR":0.00049601786,"MEAN_MOTION_DOT":5.832e-5,"MEAN_MOTION_DDOT":0},{"OBJECT_NAME":"STARLINK-34407","OBJECT_ID":"2025-126D","EPOCH":"2026-03-04T16:00:05.999040","MEAN_MOTION":14.98331352,"ECCENTRICITY":0.0003267,"INCLINATION":70.0011,"RA_OF_ASC_NODE":47.2253,"ARG_OF_PERICENTER":268.9323,"MEAN_ANOMALY":204.5837,"EPHEMERIS_TYPE":0,"CLASSIFICATION_TYPE":"U","NORAD_CAT_ID":64347,"ELEMENT_SET_NO":999,"REV_AT_EPOCH":577,"BSTAR":-0.0014063,"MEAN_MOTION_DOT":-0.00016833,"MEAN_MOTION_DDOT":0},{"OBJECT_NAME":"STARLINK-34274","OBJECT_ID":"2025-126E","EPOCH":"2026-03-04T09:23:04.075296","MEAN_MOTION":14.98346152,"ECCENTRICITY":0.00027468,"INCLINATION":70.0017,"RA_OF_ASC_NODE":48.0014,"ARG_OF_PERICENTER":264.7546,"MEAN_ANOMALY":95.33,"EPHEMERIS_TYPE":0,"CLASSIFICATION_TYPE":"U","NORAD_CAT_ID":64348,"ELEMENT_SET_NO":999,"REV_AT_EPOCH":3988,"BSTAR":0.00092555675,"MEAN_MOTION_DOT":0.00010972,"MEAN_MOTION_DDOT":0},{"OBJECT_NAME":"STARLINK-34301","OBJECT_ID":"2025-126F","EPOCH":"2026-03-04T16:00:05.999040","MEAN_MOTION":14.98335082,"ECCENTRICITY":0.0003045,"INCLINATION":70.0011,"RA_OF_ASC_NODE":47.0518,"ARG_OF_PERICENTER":278.6287,"MEAN_ANOMALY":353.3148,"EPHEMERIS_TYPE":0,"CLASSIFICATION_TYPE":"U","NORAD_CAT_ID":64349,"ELEMENT_SET_NO":999,"REV_AT_EPOCH":572,"BSTAR":-0.0014042,"MEAN_MOTION_DOT":-0.0001681,"MEAN_MOTION_DDOT":0},{"OBJECT_NAME":"STARLINK-34425","OBJECT_ID":"2025-126G","EPOCH":"2026-03-04T08:53:01.116384","MEAN_MOTION":14.98336158,"ECCENTRICITY":0.00031205,"INCLINATION":70.0022,"RA_OF_ASC_NODE":47.9258,"ARG_OF_PERICENTER":270.6475,"MEAN_ANOMALY":89.4327,"EPHEMERIS_TYPE":0,"CLASSIFICATION_TYPE":"U","NORAD_CAT_ID":64350,"ELEMENT_SET_NO":999,"REV_AT_EPOCH":3988,"BSTAR":0.00036581211,"MEAN_MOTION_DOT":4.275e-5,"MEAN_MOTION_DDOT":0},{"OBJECT_NAME":"STARLINK-34389","OBJECT_ID":"2025-126H","EPOCH":"2026-03-04T20:00:03.000384","MEAN_MOTION":14.98296193,"ECCENTRICITY":0.0003055,"INCLINATION":70.0015,"RA_OF_ASC_NODE":46.6796,"ARG_OF_PERICENTER":266.4068,"MEAN_ANOMALY":138.1895,"EPHEMERIS_TYPE":0,"CLASSIFICATION_TYPE":"U","NORAD_CAT_ID":64351,"ELEMENT_SET_NO":999,"REV_AT_EPOCH":564,"BSTAR":0.0063297,"MEAN_MOTION_DOT":0.00076192,"MEAN_MOTION_DDOT":0},{"OBJECT_NAME":"STARLINK-34385","OBJECT_ID":"2025-126J","EPOCH":"2026-03-04T09:11:04.663968","MEAN_MOTION":14.98346303,"ECCENTRICITY":0.00030365,"INCLINATION":70.0016,"RA_OF_ASC_NODE":47.971,"ARG_OF_PERICENTER":267.8458,"MEAN_ANOMALY":92.2354,"EPHEMERIS_TYPE":0,"CLASSIFICATION_TYPE":"U","NORAD_CAT_ID":64352,"ELEMENT_SET_NO":999,"REV_AT_EPOCH":3988,"BSTAR":0.00089180268,"MEAN_MOTION_DOT":0.00010568,"MEAN_MOTION_DDOT":0},{"OBJECT_NAME":"STARLINK-34431","OBJECT_ID":"2025-126K","EPOCH":"2026-03-04T08:17:13.193376","MEAN_MOTION":14.98338281,"ECCENTRICITY":0.00030167,"INCLINATION":70.0013,"RA_OF_ASC_NODE":47.8415,"ARG_OF_PERICENTER":275.0091,"MEAN_ANOMALY":85.0724,"EPHEMERIS_TYPE":0,"CLASSIFICATION_TYPE":"U","NORAD_CAT_ID":64353,"ELEMENT_SET_NO":999,"REV_AT_EPOCH":3988,"BSTAR":0.00070871761,"MEAN_MOTION_DOT":8.375e-5,"MEAN_MOTION_DDOT":0},{"OBJECT_NAME":"STARLINK-34473","OBJECT_ID":"2025-126L","EPOCH":"2026-03-04T16:00:05.999040","MEAN_MOTION":14.98337296,"ECCENTRICITY":0.0003106,"INCLINATION":70.0014,"RA_OF_ASC_NODE":47.1047,"ARG_OF_PERICENTER":270.1932,"MEAN_ANOMALY":316.7268,"EPHEMERIS_TYPE":0,"CLASSIFICATION_TYPE":"U","NORAD_CAT_ID":64354,"ELEMENT_SET_NO":999,"REV_AT_EPOCH":576,"BSTAR":-0.0013132,"MEAN_MOTION_DOT":-0.0001573,"MEAN_MOTION_DDOT":0},{"OBJECT_NAME":"STARLINK-34270","OBJECT_ID":"2025-126M","EPOCH":"2026-03-04T08:41:13.712064","MEAN_MOTION":14.98327492,"ECCENTRICITY":0.00030834,"INCLINATION":70.0013,"RA_OF_ASC_NODE":47.8922,"ARG_OF_PERICENTER":267.9002,"MEAN_ANOMALY":92.1804,"EPHEMERIS_TYPE":0,"CLASSIFICATION_TYPE":"U","NORAD_CAT_ID":64355,"ELEMENT_SET_NO":999,"REV_AT_EPOCH":4109,"BSTAR":0.00069190185,"MEAN_MOTION_DOT":8.172e-5,"MEAN_MOTION_DDOT":0},{"OBJECT_NAME":"STARLINK-34397","OBJECT_ID":"2025-126N","EPOCH":"2026-03-04T09:17:03.562656","MEAN_MOTION":14.98336696,"ECCENTRICITY":0.00030667,"INCLINATION":70.0015,"RA_OF_ASC_NODE":47.9812,"ARG_OF_PERICENTER":272.176,"MEAN_ANOMALY":87.9048,"EPHEMERIS_TYPE":0,"CLASSIFICATION_TYPE":"U","NORAD_CAT_ID":64356,"ELEMENT_SET_NO":999,"REV_AT_EPOCH":3988,"BSTAR":0.00032425114,"MEAN_MOTION_DOT":3.779e-5,"MEAN_MOTION_DDOT":0}]
