STARLINK-34216          
1 64337U 25124W   26063.64936153  .00029713  00000+0  10833-2 0  9999
2 64337  43.0004 149.8186 0001205 263.1270  96.9445 15.27630645 41014
STARLINK-34218          
1 64338U 25124X   26063.27166875  .00044480  00000+0  16128-2 0  9996
2 64338  42.9991 148.6902 0001898 262.6722  97.3914 15.27647698 40993
STARLINK-34017          
1 64339U 25124Y   26063.60967570  .00036437  00000+0  13252-2 0  9993
2 64339  43.0012 150.3841 0001417 270.7562  89.3127 15.27626726 41000
STARLINK-33977          
1 64344U 25126A   26063.33334491  .00050763  00000+0  42299-2 0  9992
2 64344  70.0016  47.8981 0003413 268.5195   4.7759 14.98343259  5714
STARLINK-34426          
1 64345U 25126B   26063.34510727  .00011782  00000+0  99330-3 0  9999
2 64345  70.0019  47.8368 0002673 270.4627  89.6226 14.98341635 39888
STARLINK-34437          
1 64346U 25126C   26063.37432303  .00005832  00000+0  49602-3 0  9992
2 64346  70.0019  47.9434 0003090 269.4122  90.6683 14.98341192 39883
STARLINK-34407          
1 64347U 25126D   26063.66673610 -.00016833  00000+0 -14063-2 0  9990
2 64347  70.0011  47.2253 0003267 268.9323 204.5837 14.98331352  5776
STARLINK-34274          
1 64348U 25126E   26063.39101939  .00010972  00000+0  92556-3 0  9991
2 64348  70.0017  48.0014 0002746 264.7546  95.3300 14.98346152 39883
STARLINK-34301          
1 64349U 25126F   26063.66673610 -.00016810  00000+0 -14042-2 0  9994
2 64349  70.0011  47.0518 0003045 278.6287 353.3148 14.98335082  5728
STARLINK-34425          
1 64350U 25126G   26063.37015181  .00004275  00000+0  36581-3 0  9990
2 64350  70.0022  47.9258 0003120 270.6475  89.4327 14.98336158 39882
STARLINK-34389          
1 64351U 25126H   26063.83336806  .00076192  00000+0  63297-2 0  9992
2 64351  70.0015  46.6796 0003055 266.4068 138.1895 14.98296193  5649
STARLINK-34385          
1 64352U 25126J   26063.38269287  .00010568  00000+0  89180-3 0  9996
2 64352  70.0016  47.9710 0003036 267.8458  92.2354 14.98346303 39880
STARLINK-34431          
1 64353U 25126K   26063.34529159  .00008375  00000+0  70872-3 0  9991
2 64353  70.0013  47.8415 0003016 275.0091  85.0724 14.98338281 39888
STARLINK-34473          
1 64354U 25126L   26063.66673610 -.00015730  00000+0 -13132-2 0  9999
2 64354  70.0014  47.1047 0003106 270.1932 316.7268 14.98337296  5766
STARLINK-34270          
1 64355U 25126M   26063.36196426  .00008172  00000+0  69190-3 0  9998
2 64355  70.0013  47.8922 0003083 267.9002  92.1804 14.98327492 41095
STARLINK-34397          
1 64356U 25126N   26063.38684679  .00003779  00000+0  32425-3 0  9992
2 64356  70.0015  47.9812 0003066 272.1760  87.9048 14.98336696 39889
